CCSDS_OMM_VERS,COMMENT,CREATION_DATE,ORIGINATOR,OBJECT_NAME,OBJECT_ID,CENTER_NAME,REF_FRAME,TIME_SYSTEM,MEAN_ELEMENT_THEORY,EPOCH,MEAN_MOTION,ECCENTRICITY,INCLINATION,RA_OF_ASC_NODE,ARG_OF_PERICENTER,MEAN_ANOMALY,EPHEMERIS_TYPE,CLASSIFICATION_TYPE,NORAD_CAT_ID,ELEMENT_SET_NO,REV_AT_EPOCH,BSTAR,MEAN_MOTION_DOT,MEAN_MOTION_DDOT,SEMIMAJOR_AXIS,PERIOD,APOAPSIS,PERIAPSIS,OBJECT_TYPE,RCS_SIZE,COUNTRY_CODE,LAUNCH_DATE,SITE,DECAY_DATE,FILE,GP_ID,TLE_LINE0,TLE_LINE1,TLE_LINE2
3.0,GENERATED VIA SPACE-TRACK.ORG API,2017-03-31T16:40:30,18 SPCS,DMSP 5D-2 F13 DEB,1995-015JD,EARTH,TEME,UTC,SGP4,2017-02-06T15:31:46.334784,15.19328181,0.0051329,98.7514,114.2233,223.3002,137.0849,0,U,42311,999,9655,0.0041178,0.00090998,0.0,6886.006,94.778,543.216,472.526,DEBRIS,,US,1995-03-24,AFWTR,2017-05-01,2165134,110630023,0 DMSP 5D-2 F13 DEB,1 42311U 95015JD  17037.64706406 +.00090998 +00000-0 +41178-2 0  9990,2 42311 098.7514 114.2233 0051329 223.3002 137.0849 15.19328181096551
3.0,GENERATED VIA SPACE-TRACK.ORG API,2004-08-17T15:14:54,18 SPCS,MIR DEB,1986-017LV,EARTH,TEME,UTC,SGP4,1998-05-22T00:37:50.926367,16.57103037,0.0004064,51.6075,132.8667,303.7482,66.1823,0,U,24419,999,11516,0.00020207,0.52238453,1.2909e-05,6498.838,86.898,123.345,118.062,DEBRIS,MEDIUM,CIS,1986-02-19,TTMTR,1998-05-22,35347,27555483,0 MIR DEB,1 24419U 86017LV  98142.02628387 +.52238453 +12909-4 +20207-3 0  9993,2 24419 051.6075 132.8667 0004064 303.7482 066.1823 16.57103037115163
3.0,GENERATED VIA SPACE-TRACK.ORG API,2004-08-15T23:39:38,18 SPCS,SL-4 R/B,1975-113B,EARTH,TEME,UTC,SGP4,1975-12-07T00:56:44.126303,16.35401466,0.000428,81.3273,241.1282,334.7108,25.392,0,U,8464,999,59,0.0,0.03712703,0.0,6556.205,88.051,180.876,175.264,ROCKET BODY,,,,,1975-12-07,33991,9537727,0 SL-4 R/B,1 08464U 75113  B 75341.03939961  .03712703 +00000-0 +00000-0 0  9992,2 08464 081.3273 241.1282 0004280 334.7108 025.3920 16.35401466000599
3.0,GENERATED VIA SPACE-TRACK.ORG API,2022-04-10T03:11:52,18 SPCS,COSMOS 1408 DEB,1982-092WZ,EARTH,TEME,UTC,SGP4,2022-04-09T16:53:15.036864,16.00133335,0.0016109,82.3901,333.8793,231.3329,128.6508,0,U,50236,999,2004,0.015734,0.06263554,0.067786,6652.186,89.993,284.767,263.335,DEBRIS,SMALL,CIS,1982-09-16,PKMTR,2022-04-10,3395351,200864152,0 COSMOS 1408 DEB,1 50236U 82092WZ  22099.70364626  .06263554  67786-1  15734-1 0  9990,2 50236  82.3901 333.8793 0016109 231.3329 128.6508 16.00133335 20048
3.0,GENERATED VIA SPACE-TRACK.ORG API,2005-06-20T09:19:53,18 SPCS,STS 59,1994-020A,EARTH,TEME,UTC,SGP4,1994-04-20T00:00:00.000000,16.24824266,0.0006921,56.9924,212.9456,291.9702,83.3623,0,U,23042,999,171,1.0508e-05,0.00029821,0.0,6584.627,88.624,211.049,201.934,PAYLOAD,,,,,1994-04-20,149697,53608794,0 STS 59,1 23042U 94020  A 94110.00000000  .00029821 +00000-0 +10508-4 0  9991,2 23042 056.9924 212.9456 0006921 291.9702 083.3623 16.24824266001710
3.0,GENERATED VIA SPACE-TRACK.ORG API,2005-04-29T09:12:45,18 SPCS,COSMOS 2075 DEB,1990-038C,EARTH,TEME,UTC,SGP4,1990-07-03T21:12:33.959232,16.33353644,0.0032569,73.9734,264.1839,31.0036,322.8712,0,U,20587,999,318,0.0026874,0.1996082,5.7e-06,6561.683,88.162,204.919,162.178,DEBRIS,SMALL,CIS,1990-04-25,PKMTR,1990-07-04,131174,45029942,0 COSMOS 2075 DEB,1 20587U 90038  C 90184.88372638  .19960820 +57000-5 +26874-2 0  9990,2 20587 073.9734 264.1839 0032569 031.0036 322.8712 16.33353644003183
3.0,GENERATED VIA SPACE-TRACK.ORG API,2005-05-02T23:37:16,18 SPCS,ARIANE 1 DEB,1986-019GJ,EARTH,TEME,UTC,SGP4,1988-07-20T09:58:27.255935,15.98707766,0.0036945,98.977,4.4385,327.8878,52.3491,0,U,17447,999,8952,0.0244,0.12427826,1.5e-06,6656.144,90.072,302.6,253.418,DEBRIS,SMALL,FR,1986-02-22,FRGUI,1988-07-20,130984,43159971,0 ARIANE 1 DEB,1 17447U 86019 GJ 88202.41559324  .12427826 +15000-5 +24400-1 0  9994,2 17447 098.9770 004.4385 0036945 327.8878 052.3491 15.98707766089523
3.0,GENERATED VIA SPACE-TRACK.ORG API,2004-08-15T23:38:47,18 SPCS,SL-7 DEB,1971-104C,EARTH,TEME,UTC,SGP4,1971-12-07T10:53:17.343744,15.04374886,0.053934,48.9357,128.4778,128.2456,236.8256,0,U,5645,999,75,0.0,0.04117217,0.0,6931.566,95.72,927.278,179.584,DEBRIS,,,,,1971-12-13,33974,9037267,0 SL-7 DEB,1 05645U 71104  C 71341.45367296  .04117217 +00000-0 +00000-0 0  9994,2 05645 048.9357 128.4778 0539340 128.2456 236.8256 15.04374886000757
3.0,GENERATED VIA SPACE-TRACK.ORG API,2024-01-15T03:09:41,18 SPCS,COSMOS 2251 DEB,1993-036ARH,EARTH,TEME,UTC,SGP4,2024-01-14T06:59:52.155168,14.73021991,0.0055156,73.8497,228.8983,223.7608,255.5553,0,U,35763,999,51466,0.005235,0.00034607,0.0,7029.574,97.758,690.212,612.667,DEBRIS,SMALL,CIS,1993-06-16,PKMTR,2024-10-27,4162100,246988405,0 COSMOS 2251 DEB,1 35763U 93036ARH 24014.29157587  .00034607  00000-0  52350-2 0  9997,2 35763  73.8497 228.8983 0055156 223.7608 255.5553 14.73021991514663
3.0,GENERATED VIA SPACE-TRACK.ORG API,2004-08-15T23:35:38,18 SPCS,SL-9 DEB,1965-054C,EARTH,TEME,UTC,SGP4,1965-07-17T03:59:01.627584,15.65529921,0.028438,63.4208,133.0135,68.5497,294.4734,0,U,1450,999,11,0.0,0.05032155,0.042015,6749.856,91.981,563.673,179.769,DEBRIS,,,,,1965-07-24,33911,8702258,0 SL-9 DEB,1 01450U 65054  C 65198.16599106  .05032155 +42015-1 +00000-0 0  9990,2 01450 063.4208 133.0135 0284380 068.5497 294.4734 15.65529921000115
3.0,GENERATED VIA SPACE-TRACK.ORG API,2004-08-17T15:01:57,18 SPCS,ARIANE 44P+3 R/B,1995-044B,EARTH,TEME,UTC,SGP4,1996-01-11T17:11:15.400608,12.41227928,0.1763268,6.4629,152.0823,20.3341,346.4531,0,U,23652,999,418,0.0038754,0.73410968,-5.855e-05,7879.544,116.014,2890.783,112.034,ROCKET BODY,LARGE,FR,1995-08-29,FRGUI,1996-01-13,35088,22012905,0 ARIANE 44P+3 R/B,1 23652U 95044B   96011.71615047  .73410968 -58550-4  38754-2 0  9993,2 23652 006.4629 152.0823 1763268 020.3341 346.4531 12.41227928  4181
3.0,GENERATED VIA SPACE-TRACK.ORG API,2004-08-16T23:23:02,18 SPCS,SALYUT 7 DEB,1982-033GE,EARTH,TEME,UTC,SGP4,1985-11-29T23:43:07.487904,16.03854557,0.0036823,51.6953,175.9051,218.9259,216.931,0,U,16239,999,64,0.0030181,0.02180148,7.9437e-06,6641.896,89.783,288.219,239.304,DEBRIS,,,,,1985-12-03,34487,14485470,0 SALYUT 7 DEB,1 16239U 82033 GE 85333.98828111  .02180148 +79437-5 +30181-2 0  9991,2 16239 051.6953 175.9051 0036823 218.9259 216.9310 16.03854557000644
3.0,GENERATED VIA SPACE-TRACK.ORG API,2024-10-26T03:31:18,18 SPCS,FLOCK 4X 26,2022-002AU,EARTH,TEME,UTC,SGP4,2024-10-24T03:21:32.604480,16.46170495,0.0014163,97.3463,19.4925,289.0691,70.9077,0,U,51026,999,15514,0.00040327,0.20652938,2.5391e-06,6527.576,87.476,158.686,140.196,PAYLOAD,SMALL,US,2022-01-13,AFETR,2024-10-30,4534355,271550540,0 FLOCK 4X 26,1 51026U 22002AU  24298.13996070  .20652938  25391-5  40327-3 0  9999,2 51026  97.3463  19.4925 0014163 289.0691  70.9077 16.46170495155147
3.0,GENERATED VIA SPACE-TRACK.ORG API,2004-08-15T23:35:50,18 SPCS,COSMOS 175,1967-085A,EARTH,TEME,UTC,SGP4,1967-09-18T00:07:08.466240,15.98299021,0.0114912,72.8701,135.5983,40.885,320.081,0,U,2939,999,105,0.0,0.00125096,0.0,6657.279,90.095,355.644,202.643,PAYLOAD,,,,,1967-09-19,33915,8757280,0 COSMOS 175,1 02939U 67085  A 67261.00495910  .00125096 +00000-0 +00000-0 0  9992,2 02939 072.8701 135.5983 0114912 040.8850 320.0810 15.98299021001053
3.0,GENERATED VIA SPACE-TRACK.ORG API,2022-09-02T02:30:35,18 SPCS,COSMOS 1408 DEB,1982-092HF,EARTH,TEME,UTC,SGP4,2022-09-01T19:43:21.360864,16.24074145,0.0013104,82.539,184.8263,184.5627,175.5547,0,U,49710,999,4360,0.0026465,0.06987647,-1.216e-06,6586.65,88.666,217.146,199.884,DEBRIS,SMALL,CIS,1982-09-16,PKMTR,2022-09-01,3554009,211504404,0 COSMOS 1408 DEB,1 49710U 82092HF  22244.82177501  .06987647 -12160-5  26465-2 0  9995,2 49710  82.5390 184.8263 0013104 184.5627 175.5547 16.24074145 43605
3.0,GENERATED VIA SPACE-TRACK.ORG API,2004-08-17T15:28:03,18 SPCS,SL-8 R/B,1996-025B,EARTH,TEME,UTC,SGP4,2001-01-04T19:53:17.251295,16.51595908,0.0012101,82.846,81.0097,126.1509,234.1585,0,U,23854,999,24697,0.00023529,0.27319535,-1.2723e-06,6513.277,87.188,143.024,127.26,ROCKET BODY,LARGE,CIS,1996-04-24,PKMTR,2001-01-05,35610,35548263,0 SL-8 R/B,1 23854U 96025B   01004.82867189 +.27319535 -12723-5 +23529-3 0  9998,2 23854 082.8460 081.0097 0012101 126.1509 234.1585 16.51595908246971
3.0,GENERATED VIA SPACE-TRACK.ORG API,2004-08-17T15:21:54,18 SPCS,COSMOS 2358,1998-038A,EARTH,TEME,UTC,SGP4,1998-10-22T02:04:31.392480,16.12613716,0.0108149,67.0897,134.2036,61.9699,299.237,0,U,25373,999,1916,0.0002869,0.00896439,5.88e-06,6617.824,89.296,311.26,168.117,PAYLOAD,LARGE,CIS,1998-06-24,PKMTR,1998-10-22,35487,28767087,0 COSMOS 2358,1 25373U 98038A   98295.08647445 +.00896439 +58800-5 +28690-3 0  9992,2 25373 067.0897 134.2036 0108149 061.9699 299.2370 16.12613716019164
3.0,GENERATED VIA SPACE-TRACK.ORG API,2004-08-15T23:39:17,18 SPCS,COSMOS 635 DEB,1974-014E,EARTH,TEME,UTC,SGP4,1974-04-05T22:30:01.070495,16.36887424,0.0022598,72.8085,275.6226,357.1727,2.9339,0,U,7222,999,363,0.00040195,0.0343909,0.02673,6552.236,87.971,188.908,159.294,DEBRIS,,,,,1974-04-07,33984,9307116,0 COSMOS 635 DEB,1 07222U 74014  E 74095.93751239  .03439090 +26730-1 +40195-3 0  9992,2 07222 072.8085 275.6226 0022598 357.1727 002.9339 16.36887424003630
3.0,GENERATED VIA SPACE-TRACK.ORG API,2022-03-14T18:14:10,18 SPCS,COSMOS 1408 DEB,1982-092BFD,EARTH,TEME,UTC,SGP4,2022-03-14T06:25:42.842208,15.80412119,0.0022642,82.5581,0.8359,166.7795,193.4071,0,U,51335,999,982,0.0092743,0.02033339,0.0,6707.411,91.115,344.463,314.089,DEBRIS,SMALL,CIS,1982-09-16,PKMTR,2022-03-18,3359259,198737601,0 COSMOS 1408 DEB,1 51335U 82092BFD 22073.26785697  .02033339  00000-0  92743-2 0  9992,2 51335  82.5581   0.8359 0022642 166.7795 193.4071 15.80412119  9826
3.0,GENERATED VIA SPACE-TRACK.ORG API,2005-04-25T10:07:34,18 SPCS,COSMOS 554 DEB,1973-021BB,EARTH,TEME,UTC,SGP4,1973-05-10T00:14:13.082495,15.76070777,0.0149745,72.7973,294.3617,315.4394,43.4808,0,U,6492,999,331,0.0,0.00331013,3.8846e-05,6719.727,91.366,442.216,240.967,DEBRIS,,,,,1973-05-30,129569,41998735,0 COSMOS 554 DEB,1 06492U 73021 BB 73130.00987364  .00331013 +38846-4 +00000-0 0  9999,2 06492 072.7973 294.3617 0149745 315.4394 043.4808 15.76070777003310
